{
  "norad_id": 59170,
  "name": "STARLINK-31340",
  "history": [
    {
      "epoch": "2026-03-28T22:00:46.581984Z",
      "apogee_km": 483.83109785240777,
      "perigee_km": 481.7533340486498,
      "latitude_deg": -1.3058279293906654e-05,
      "longitude_deg": 162.36591924351904,
      "height_km": 482.5869216185702,
      "semi_major_axis_km": 6860.9292159505285,
      "eccentricity": 0.00015142,
      "inclination_deg": 43.0031,
      "raan_deg": 318.8908,
      "arg_perigee_deg": 269.0307,
      "mean_anomaly_deg": 91.0371,
      "mean_motion_rev_day": 15.27665792
    },
    {
      "epoch": "2026-03-28T23:34:55.802784Z",
      "apogee_km": 483.85629491029886,
      "perigee_km": 481.7170589078387,
      "latitude_deg": -4.834970496680101e-06,
      "longitude_deg": 138.3935620827807,
      "height_km": 482.5860918850481,
      "semi_major_axis_km": 6860.9236769090685,
      "eccentricity": 0.0001559,
      "inclination_deg": 43.003,
      "raan_deg": 318.5213,
      "arg_perigee_deg": 268.8075,
      "mean_anomaly_deg": 91.2598,
      "mean_motion_rev_day": 15.27667642
    },
    {
      "epoch": "2026-03-30T00:41:25.930176Z",
      "apogee_km": 483.8647971917735,
      "perigee_km": 481.6996283066137,
      "latitude_deg": 1.226582764028679e-05,
      "longitude_deg": 114.82828598985188,
      "height_km": 482.8555000426891,
      "semi_major_axis_km": 6860.919212749193,
      "eccentricity": 0.00015779,
      "inclination_deg": 43.0032,
      "raan_deg": 312.6127,
      "arg_perigee_deg": 254.122,
      "mean_anomaly_deg": 105.9458,
      "mean_motion_rev_day": 15.27669133
    }
  ]
}